OBJECT_NAME,OBJECT_ID,EPOCH,MEAN_MOTION,ECCENTRICITY,INCLINATION,RA_OF_ASC_NODE,ARG_OF_PERICENTER,MEAN_ANOMALY,EPHEMERIS_TYPE,CLASSIFICATION_TYPE,NORAD_CAT_ID,ELEMENT_SET_NO,REV_AT_EPOCH,BSTAR,MEAN_MOTION_DOT,MEAN_MOTION_DDOT
SHIJIAN-21 (SJ-21),2021-094A,2026-07-19T15:00:01.575936,1.00276249,.00515094,5.1880,60.9824,168.9139,60.5018,0,U,49330,999,568,0,-.354E-5,0
SES-17,2021-095A,2026-07-19T20:01:38.728128,1.00269746,.000099,0.0224,49.7536,61.0804,60.0935,0,U,49332,999,1818,0,-.275E-5,0
SYRACUSE 4A,2021-095B,2026-07-19T20:14:12.638976,1.00268596,.00018,0.0198,64.9450,67.8996,153.8419,0,U,49333,999,1827,0,0,0
QZS-1R (MICHIBIKI-1R),2021-096A,2026-07-19T13:27:51.734016,1.00244085,.0755512,37.5263,79.1015,272.3091,279.1178,0,U,49336,999,1733,0,-.322E-5,0
ZHONGXING-1D,2021-114A,2026-07-18T17:15:57.634848,1.00266793,.00006199,0.0250,226.0905,24.7402,74.7947,0,U,49505,999,1713,0,-.344E-5,0
STPSAT-6,2021-118A,2026-07-19T14:46:38.843040,1.00270778,.0000892,0.4026,85.0966,253.7848,68.3723,0,U,49817,999,1689,0,-.49E-6,0
EXPRESS AMU-7,2021-123A,2026-07-19T18:59:53.592864,1.00272383,.000041,0.0201,299.8051,9.9353,57.8094,0,U,50001,999,1686,0,-.246E-5,0
EXPRESS AMU-3,2021-123B,2026-07-18T21:21:38.554848,1.00270141,.00003714,0.0134,9.2566,290.7391,60.0006,0,U,50002,999,735,0,0,0
TIANLIAN 2-02,2021-124A,2026-07-19T19:07:22.876320,1.00271640,.0001537,0.8843,85.6254,159.6364,150.1144,0,U,50005,999,1694,0,-.18E-6,0
TURKSAT 5B,2021-126A,2026-07-19T20:13:12.736128,1.00268096,.0002031,0.0708,337.6310,16.0164,289.2618,0,U,50212,999,1662,0,.143E-5,0
INMARSAT 6-F1,2021-128A,2026-07-19T20:25:04.099296,1.00269777,.0000271,0.0176,49.3347,42.2208,236.1030,0,U,50319,999,1658,0,0,0
SHIYAN-12 01 (SY-12 01),2021-129A,2026-07-18T19:20:58.970112,1.00053356,.0002602,3.7543,79.4846,289.2178,252.5659,0,U,50321,999,1681,0,.139E-5,0
SHIYAN-12 02 (SY-12 02),2021-129B,2026-07-18T19:48:11.098944,1.00475714,.0003171,3.7534,79.4840,68.1169,199.1085,0,U,50322,999,1681,0,-.37E-5,0
TJS-9,2021-135A,2026-07-19T18:57:46.297152,1.00270803,.0002191,0.0571,100.5008,332.6590,286.1018,0,U,50574,999,1675,0,-.302E-5,0
GOES 18,2022-021A,2026-07-19T17:39:30.046752,1.00272002,.0000616,0.0158,91.1760,60.7789,273.4501,0,U,51850,999,691,0,0,0
ZHONGXING-6D,2022-038A,2026-07-18T19:53:41.948736,1.00268466,.00008088,0.0003,355.2428,182.6071,182.1505,0,U,52255,999,1573,0,0,0
NILESAT 301,2022-061A,2026-07-19T19:59:10.406976,1.00270410,.000362,0.0464,12.8882,70.4480,147.0613,0,U,52817,999,1506,0,-.61E-6,0
CMS-02 (GSAT-24),2022-067A,2026-07-19T20:24:56.611008,1.00272828,.0000863,0.0549,249.6630,112.8844,324.3052,0,U,52903,999,1493,0,-.168E-5,0
MEASAT 3D,2022-067B,2026-07-19T20:13:13.198368,1.00270440,.0000501,0.0349,329.4465,68.7565,294.2208,0,U,52904,999,1497,0,-.244E-5,0
SES-22,2022-071A,2026-07-19T17:39:00.095328,1.00273295,.0000962,0.0417,251.0712,218.0138,314.1720,0,U,52933,999,784,0,.101E-5,0
WFOV (USA 332),2022-073A,2026-07-19T15:27:20.805120,1.00275470,.0000958,3.7922,78.1182,186.8503,23.5781,0,U,52940,999,1469,0,-.368E-5,0
TIANLIAN 2-03,2022-078A,2026-07-19T20:44:01.030848,1.00269838,.000072,0.7514,77.5272,20.3492,161.3920,0,U,53100,999,1487,0,.68E-6,0
SBIRS GEO-6 (USA 336),2022-092A,2026-07-19T18:39:06.762240,1.00271334,.0001862,3.2036,318.0359,155.3646,242.9331,0,U,53355,999,1456,0,-.294E-5,0
EUTELSAT KONNECT VHTS,2022-110A,2026-07-19T19:13:38.515872,1.00280105,.0002504,0.0587,99.9287,356.6172,132.1512,0,U,53765,999,716,0,.15E-6,0
ZHONGXING-1E,2022-112A,2026-07-19T20:24:26.657856,1.00272691,.0000681,0.0508,237.8681,28.6591,58.6258,0,U,53813,999,1417,0,-.153E-5,0
SES-20,2022-123A,2026-07-19T14:38:38.662944,1.00270351,.0002014,0.0132,67.9166,25.0059,321.0285,0,U,53960,999,1385,0,-.105E-5,0
SES-21,2022-123B,2026-07-19T14:54:38.547072,1.00269550,.0000859,0.0243,34.5540,88.1639,267.3519,0,U,53961,999,753,0,.65E-6,0
GALAXY 33 (G-33),2022-128A,2026-07-19T17:40:37.438752,1.00270779,.0001939,0.0211,67.8284,46.4235,315.3981,0,U,54026,999,1406,0,.76E-6,0
GALAXY 34 (G-34),2022-128B,2026-07-19T17:41:44.830752,1.00274659,.0001791,0.0154,49.4968,75.4435,309.0282,0,U,54027,999,1423,0,0,0
ANGOSAT 2,2022-131A,2026-07-18T22:22:38.611776,1.00273970,.00001575,0.0174,128.6584,338.4700,188.2547,0,U,54033,999,1379,0,.129E-5,0
EUTELSAT HOTBIRD 13F,2022-134A,2026-07-19T20:37:41.759904,1.00272001,.000193,0.0531,283.2737,78.1615,258.6377,0,U,54048,999,1370,0,.84E-6,0
LDPE-2,2022-144A,2026-07-19T07:54:38.653056,1.00545431,.00024631,5.6744,63.2752,107.1011,118.9137,0,U,54219,999,1216,0,-.4E-7,0
