SHIJIAN-21 (SJ-21)      
1 49330U 21094A   26200.62501824 -.00000354  00000+0  00000+0 0  9994
2 49330   5.1880  60.9824 0051509 168.9139  60.5018  1.00276249  5689
SES-17                  
1 49332U 21095A   26200.83447602 -.00000275  00000+0  00000+0 0  9995
2 49332   0.0224  49.7536 0000990  61.0804  60.0935  1.00269746 18188
SYRACUSE 4A             
1 49333U 21095B   26200.84320184  .00000000  00000+0  00000+0 0  9997
2 49333   0.0198  64.9450 0001800  67.8996 153.8419  1.00268596 18270
QZS-1R (MICHIBIKI-1R)   
1 49336U 21096A   26200.56101544 -.00000322  00000+0  00000+0 0  9995
2 49336  37.5263  79.1015 0755512 272.3091 279.1178  1.00244085 17338
ZHONGXING-1D            
1 49505U 21114A   26199.71941707 -.00000344  00000+0  00000+0 0  9995
2 49505   0.0250 226.0905 0000619  24.7402  74.7947  1.00266793 17135
STPSAT-6                
1 49817U 21118A   26200.61572735 -.00000049  00000+0  00000+0 0  9990
2 49817   0.4026  85.0966 0000892 253.7848  68.3723  1.00270778 16898
EXPRESS AMU-7           
1 50001U 21123A   26200.79159251 -.00000246  00000+0  00000+0 0  9995
2 50001   0.0201 299.8051 0000410   9.9353  57.8094  1.00272383 16869
EXPRESS AMU-3           
1 50002U 21123B   26199.89002957  .00000000  00000+0  00000+0 0  9991
2 50002   0.0134   9.2566 0000371 290.7391  60.0006  1.00270141  7350
TIANLIAN 2-02           
1 50005U 21124A   26200.79679255 -.00000018  00000+0  00000+0 0  9998
2 50005   0.8843  85.6254 0001537 159.6364 150.1144  1.00271640 16942
TURKSAT 5B              
1 50212U 21126A   26200.84250852  .00000143  00000+0  00000+0 0  9992
2 50212   0.0708 337.6310 0002031  16.0164 289.2618  1.00268096 16627
INMARSAT 6-F1           
1 50319U 21128A   26200.85074189  .00000000  00000+0  00000+0 0  9992
2 50319   0.0176  49.3347 0000271  42.2208 236.1030  1.00269777 16586
SHIYAN-12 01 (SY-12 01) 
1 50321U 21129A   26199.80623808  .00000139  00000+0  00000+0 0  9999
2 50321   3.7543  79.4846 0002602 289.2178 252.5659  1.00053356 16813
SHIYAN-12 02 (SY-12 02) 
1 50322U 21129B   26199.82512846 -.00000370  00000+0  00000+0 0  9999
2 50322   3.7534  79.4840 0003171  68.1169 199.1085  1.00475714 16819
TJS-9                   
1 50574U 21135A   26200.79011918 -.00000302  00000+0  00000+0 0  9993
2 50574   0.0571 100.5008 0002191 332.6590 286.1018  1.00270803 16757
GOES 18                 
1 51850U 22021A   26200.73576443  .00000000  00000+0  00000+0 0  9993
2 51850   0.0158  91.1760 0000616  60.7789 273.4501  1.00272002  6911
ZHONGXING-6D            
1 52255U 22038A   26199.82895774  .00000000  00000+0  00000+0 0  9999
2 52255   0.0003 355.2428 0000808 182.6071 182.1505  1.00268466 15735
NILESAT 301             
1 52817U 22061A   26200.83275934 -.00000061  00000+0  00000+0 0  9991
2 52817   0.0464  12.8882 0003620  70.4480 147.0613  1.00270410 15061
CMS-02 (GSAT-24)        
1 52903U 22067A   26200.85065522 -.00000168  00000+0  00000+0 0  9993
2 52903   0.0549 249.6630 0000863 112.8844 324.3052  1.00272828 14930
MEASAT 3D               
1 52904U 22067B   26200.84251387 -.00000244  00000+0  00000+0 0  9994
2 52904   0.0349 329.4465 0000501  68.7565 294.2208  1.00270440 14970
SES-22                  
1 52933U 22071A   26200.73541777  .00000101  00000+0  00000+0 0  9995
2 52933   0.0417 251.0712 0000962 218.0138 314.1720  1.00273295  7840
WFOV (USA 332)          
1 52940U 22073A   26200.64399080 -.00000368  00000+0  00000+0 0  9999
2 52940   3.7922  78.1182 0000958 186.8503  23.5781  1.00275470 14697
TIANLIAN 2-03           
1 53100U 22078A   26200.86390082  .00000068  00000+0  00000+0 0  9996
2 53100   0.7514  77.5272 0000720  20.3492 161.3920  1.00269838 14876
SBIRS GEO-6 (USA 336)   
1 53355U 22092A   26200.77716160 -.00000294  00000+0  00000+0 0  9995
2 53355   3.2036 318.0359 0001862 155.3646 242.9331  1.00271334 14564
EUTELSAT KONNECT VHTS   
1 53765U 22110A   26200.80114023  .00000015  00000+0  00000+0 0  9995
2 53765   0.0587  99.9287 0002504 356.6172 132.1512  1.00280105  7169
ZHONGXING-1E            
1 53813U 22112A   26200.85030854 -.00000153  00000+0  00000+0 0  9999
2 53813   0.0508 237.8681 0000681  28.6591  58.6258  1.00272691 14171
SES-20                  
1 53960U 22123A   26200.61016971 -.00000105  00000+0  00000+0 0  9999
2 53960   0.0132  67.9166 0002014  25.0059 321.0285  1.00270351 13851
SES-21                  
1 53961U 22123B   26200.62127948  .00000065  00000+0  00000+0 0  9992
2 53961   0.0243  34.5540 0000859  88.1639 267.3519  1.00269550  7539
GALAXY 33 (G-33)        
1 54026U 22128A   26200.73654443  .00000076  00000+0  00000+0 0  9999
2 54026   0.0211  67.8284 0001939  46.4235 315.3981  1.00270779 14068
GALAXY 34 (G-34)        
1 54027U 22128B   26200.73732443  .00000000  00000+0  00000+0 0  9994
2 54027   0.0154  49.4968 0001791  75.4435 309.0282  1.00274659 14234
ANGOSAT 2               
1 54033U 22131A   26199.93239134  .00000129  00000+0  00000+0 0  9995
2 54033   0.0174 128.6584 0000157 338.4700 188.2547  1.00273970 13795
EUTELSAT HOTBIRD 13F    
1 54048U 22134A   26200.85951111  .00000084  00000+0  00000+0 0  9994
2 54048   0.0531 283.2737 0001930  78.1615 258.6377  1.00272001 13707
LDPE-2                  
1 54219U 22144A   26200.32961404 -.00000004  00000+0  00000+0 0  9996
2 54219   5.6744  63.2752 0002463 107.1011 118.9137  1.00545431 12163
